[{"OBJECT_NAME":"SPAWAR-CAL-R","OBJECT_ID":"2018-099U","EPOCH":"2026-03-08T15:37:40.202400","MEAN_MOTION":15.05212097,"ECCENTRICITY":0.00197014,"INCLINATION":97.4524,"RA_OF_ASC_NODE":111.5817,"ARG_OF_PERICENTER":348.9052,"MEAN_ANOMALY":11.1737,"EPHEMERIS_TYPE":0,"CLASSIFICATION_TYPE":"U","NORAD_CAT_ID":43776,"ELEMENT_SET_NO":999,"REV_AT_EPOCH":39687,"BSTAR":0.00025335573,"MEAN_MOTION_DOT":3.57e-5,"MEAN_MOTION_DDOT":0},{"OBJECT_NAME":"STARLINK-5481","OBJECT_ID":"2023-094AP","EPOCH":"2026-03-09T22:00:01.999584","MEAN_MOTION":15.05368952,"ECCENTRICITY":0.00017431,"INCLINATION":43.0015,"RA_OF_ASC_NODE":16.0381,"ARG_OF_PERICENTER":263.6038,"MEAN_ANOMALY":134.1698,"EPHEMERIS_TYPE":0,"CLASSIFICATION_TYPE":"U","NORAD_CAT_ID":57255,"ELEMENT_SET_NO":999,"REV_AT_EPOCH":573,"BSTAR":0.0021002529,"MEAN_MOTION_DOT":0.00030526,"MEAN_MOTION_DDOT":0}]
